ES'HAIL 2               
1 43700U 18090A   26195.84234366  .00000135  00000+0  00000+0 0  9998
2 43700   0.0180  39.9084 0002192 119.2005 102.6091  1.00270700 27959
GEO-KOMPSAT-2A          
1 43823U 18100A   26195.72708625 -.00000352  00000+0  00000+0 0  9999
2 43823   0.0287 108.8702 0001961 352.7689 220.9550  1.00269956 27901
GSAT-11                 
1 43824U 18100B   26195.78757080 -.00000085  00000+0  00000+0 0  9998
2 43824   0.0533 253.9605 0007660 203.7241 192.4874  1.00271013 27753
GSAT-7A                 
1 43864U 18105A   26195.87632515  .00000018  00000+0  00000+0 0  9997
2 43864   0.0838  91.4396 0001658  19.7511 199.7612  1.00270983 27725
COSMOS 2533             
1 43867U 18107A   26195.78679080 -.00000046  00000+0  00000+0 0  9992
2 43867   0.0399 118.1956 0001084 141.8973  25.7778  1.00269723 27722
TJS-3                   
1 43874U 18110A   26194.76645609 -.00000223  00000+0  00000+0 0  9998
2 43874   2.6109  80.1709 0002512  89.7880 185.8222  1.00272063 27683
ZHONGXING-2D            
1 43920U 19001A   26195.79866418 -.00000346  00000+0  00000+0 0  9993
2 43920   0.0550 231.9164 0000413  89.4577  28.7797  1.00270942 54356
HELLAS-SAT 4 & SGS-1    
1 44034U 19007A   26195.28158947  .00000146  00000+0  00000+0 0  9998
2 44034   0.0672 125.5173 0005727  21.8726 285.1324  1.00271532 27637
GSAT-31                 
1 44035U 19007B   26195.86135167  .00000117  00000+0  00000+0 0  9990
2 44035   0.0135  94.7454 0000792 137.2078  58.7161  1.00270649 27248
NUSANTARA SATU          
1 44048U 19009A   26194.52515208 -.00000239  00000+0  00000+0 0  9992
2 44048   0.0316 124.8301 0004678   6.3551 135.2754  1.00270313 27032
ZHONGXING-6C            
1 44067U 19012A   26195.79875086 -.00000344  00000+0  00000+0 0  9997
2 44067   0.0911  75.6765 0014488 337.9731 297.0120  1.00271082 27010
WGS 10 (USA 291)        
1 44071U 19014A   26195.42838587  .00000040  00000+0  00000+0 0  9991
2 44071   0.0177  45.2250 0000311 233.8921 227.6921  1.00270690 26893
TIANLIAN 2-01           
1 44076U 19017A   26195.79905828 -.00000115  00000+0  00000+0 0  9996
2 44076   0.6090  83.0573 0001474  80.4768 133.7976  1.00270824 26922
ARABSAT-6A              
1 44186U 19021A   26195.87405774  .00000144  00000+0  00000+0 0  9998
2 44186   0.0446   7.1811 0002406 247.6292  23.0597  1.00263066 26436
BEIDOU-3 IGSO-1         
1 44204U 19023A   26194.49395858 -.00000204  00000+0  00000+0 0  9997
2 44204  58.7323  37.3789 0025734 224.1077 326.8166  1.00283496  7478
BEIDOU-2 G8             
1 44231U 19027A   26195.80152420 -.00000257  00000+0  00000+0 0  9991
2 44231   1.7252  74.4886 0009723 282.0956   9.1465  1.00271788 26358
YAMAL 601               
1 44307U 19031A   26195.86135087  .00000111  00000+0  00000+0 0  9994
2 44307   0.0183  84.4967 0002253  24.0984 183.2013  1.00271049 26201
AT&T T-16               
1 44333U 19034A   26195.82414432 -.00000123  00000+0  00000+0 0  9990
2 44333   0.0157  70.7114 0000616 248.2150 169.5701  1.00268430 25917
EUTELSAT 7C             
1 44334U 19034B   26195.56032043  .00000040  00000+0  00000+0 0  9993
2 44334   0.0769 179.8524 0003130 279.4611  41.8320  1.00270205  7119
BEIDOU-3 IGSO-2         
1 44337U 19035A   26195.79641084 -.00000139  00000+0  00000+0 0  9993
2 44337  55.2501 158.6203 0039536 216.6664 322.6164  1.00257889 25947
COSMOS 2539             
1 44457U 19048A   26195.77528065  .00000072  00000+0  00000+0 0  9996
2 44457   0.0354 102.3248 0000804 355.6930 125.7041  1.00271435 25506
EDRS-C                  
1 44475U 19049A   26195.58706845 -.00000270  00000+0  00000+0 0  9991
2 44475   0.0172 104.9935 0000893  24.4612 156.8304  1.00271140 25488
INTELSAT 39 (IS-39)     
1 44476U 19049B   26194.92525137  .00000000  00000+0  00000+0 0  9992
2 44476   0.0241  49.4551 0000732 282.1376 355.2527  1.00272225 25392
AMOS-17                 
1 44479U 19050A   26195.83564006  .00000101  00000+0  00000+0 0  9998
2 44479   0.0160  21.0743 0001315  98.9788 130.4621  1.00273499 25462
AEHF-5 (USA 292)        
1 44481U 19051A   26195.82073648 -.00000265  00000+0  00000+0 0  9990
2 44481   1.4318 338.3703 0064978 357.5915 345.2343  1.00273862 25534
EUTELSAT 5 WEST B       
1 44624U 19067A   26195.62938686 -.00000051  00000+0  00000+0 0  9999
2 44624   0.0701 333.5012 0003096 138.5371  42.0158  1.00269913 24718
MEV-1                   
1 44625U 19067B   26167.92963140 -.00000149  00000+0  00000+0 0  9993
2 44625   0.8740 268.9828 0002794 179.8034 307.2103  1.00269616 61744
TJS-4                   
1 44637U 19070A   26195.70930817 -.00000175  00000+0  00000+0 0  9991
2 44637   0.1149 260.5370 0001386 318.2730  52.6242  1.00257855 24815
TIBA-1                  
1 44800U 19080A   26195.87405774  .00000147  00000+0  00000+0 0  9999
2 44800   0.0520  15.1672 0001886 111.2490 156.4432  1.00270659 24335
INMARSAT GX5            
1 44801U 19080B   26195.79935567  .00000067  00000+0  00000+0 0  9990
2 44801   0.0350 357.6926 0002257 129.0419 104.7134  1.00272518  7066
JCSAT-18 (KACIFIC 1)    
1 44868U 19091A   26195.61949707 -.00000209  00000+0  00000+0 0  9996
2 44868   0.0546 235.7654 0000501  26.7509  42.9657  1.00269316 24281
ELEKTRO-L 3             
1 44903U 19095A   26195.91271633 -.00000105  00000+0  00000+0 0  9994
2 44903   0.3255  82.0883 0001119  20.1992 235.0422  1.00271044 23980
